[{"OBJECT_NAME":"TRANSPORTER-11 OBJECT A","OBJECT_ID":"2024-149A","EPOCH":"2026-03-09T17:54:54.302112","MEAN_MOTION":15.31141332,"ECCENTRICITY":0.00031096,"INCLINATION":97.378,"RA_OF_ASC_NODE":149.0949,"ARG_OF_PERICENTER":191.001,"MEAN_ANOMALY":169.1164,"EPHEMERIS_TYPE":0,"CLASSIFICATION_TYPE":"U","NORAD_CAT_ID":60468,"ELEMENT_SET_NO":999,"REV_AT_EPOCH":8683,"BSTAR":0.00036053677,"MEAN_MOTION_DOT":0.00010774,"MEAN_MOTION_DDOT":0},{"OBJECT_NAME":"STARLINK-35563","OBJECT_ID":"2025-236B","EPOCH":"2026-03-09T11:36:44.379936","MEAN_MOTION":15.30195,"ECCENTRICITY":0.00015405,"INCLINATION":53.1602,"RA_OF_ASC_NODE":104.7929,"ARG_OF_PERICENTER":70.0195,"MEAN_ANOMALY":290.0972,"EPHEMERIS_TYPE":0,"CLASSIFICATION_TYPE":"U","NORAD_CAT_ID":66087,"ELEMENT_SET_NO":999,"REV_AT_EPOCH":2285,"BSTAR":0.00096792196,"MEAN_MOTION_DOT":0.00028413,"MEAN_MOTION_DDOT":0}]
